{"type": "FeatureCollection", "features": [ {"type": "Feature", "properties": {"norad_id": 66558, "name": "STARLINK-35695", "group": "last-30-days", "lat": 13.462385648569201, "lon": 126.36814597168774, "alt_km": 414.3859396638318, "timestamp": "2025-12-14T09:36:21.778604+00:00", "meta": {"OBJECT_NAME": "STARLINK-35695", "OBJECT_ID": "2025-268B", "EPOCH": "2025-12-13T00:00:07.999776", "MEAN_MOTION": 15.50654603, "ECCENTRICITY": 0.00033998, "INCLINATION": 43, "RA_OF_ASC_NODE": 119.6723, "ARG_OF_PERICENTER": 271.8856, "MEAN_ANOMALY": 203.7262, "EPHEMERIS_TYPE": 0, "CLASSIFICATION_TYPE": "U", "NORAD_CAT_ID": 66558, "ELEMENT_SET_NO": 999, "REV_AT_EPOCH": 471, "BSTAR": -0.0028094379, "MEAN_MOTION_DOT": -0.00162274, "MEAN_MOTION_DDOT": 0}, "tle": {"line1": "1 66558U 25268B   25347.00009259 -.00162274  00000+0 -28094-2 0  9997", "line2": "2 66558  43.0000 119.6723 0003399 271.8856 203.7262 15.50654603  4718"}}, "geometry": {"type": "Point", "coordinates": [126.36814597168774, 13.462385648569201]}}, {"type": "Feature", "properties": {"norad_id": 66559, "name": "STARLINK-35419", "group": "last-30-days", "lat": 15.59551278631735, "lon": 128.90549790359168, "alt_km": 413.0777994660393, "timestamp": "2025-12-14T09:36:21.778615+00:00", "meta": {"OBJECT_NAME": "STARLINK-35419", "OBJECT_ID": "2025-268C", "EPOCH": "2025-12-13T08:46:24.415968", "MEAN_MOTION": 15.50666958, "ECCENTRICITY": 0.000303, "INCLINATION": 42.9994, "RA_OF_ASC_NODE": 117.5305, "ARG_OF_PERICENTER": 252.4302, "MEAN_ANOMALY": 107.6228, "EPHEMERIS_TYPE": 0, "CLASSIFICATION_TYPE": "U", "NORAD_CAT_ID": 66559, "ELEMENT_SET_NO": 999, "REV_AT_EPOCH": 472, "BSTAR": 0.0010251718, "MEAN_MOTION_DOT": 0.00060462, "MEAN_MOTION_DDOT": 0}, "tle": {"line1": "1 66559U 25268C   25347.36556037  .00060462  00000+0  10252-2 0  9999", "line2": "2 66559  42.9994 117.5305 0003030 252.4302 107.6228 15.50666958  4726"}}, "geometry": {"type": "Point", "coordinates": [128.90549790359168, 15.59551278631735]}}, {"type": "Feature", "properties": {"norad_id": 66560, "name": "STARLINK-35411", "group": "last-30-days", "lat": 17.12749261287567, "lon": 130.78151854945165, "alt_km": 411.75458603604966, "timestamp": "2025-12-14T09:36:21.778627+00:00", "meta": {"OBJECT_NAME": "STARLINK-35411", "OBJECT_ID": "2025-268D", "EPOCH": "2025-12-13T07:13:08.471136", "MEAN_MOTION": 15.50664996, "ECCENTRICITY": 0.00016874, "INCLINATION": 42.9992, "RA_OF_ASC_NODE": 117.9044, "ARG_OF_PERICENTER": 256.1982, "MEAN_ANOMALY": 103.869, "EPHEMERIS_TYPE": 0, "CLASSIFICATION_TYPE": "U", "NORAD_CAT_ID": 66560, "ELEMENT_SET_NO": 999, "REV_AT_EPOCH": 471, "BSTAR": 0.0023770981, "MEAN_MOTION_DOT": 0.00142107, "MEAN_MOTION_DDOT": 0}, "tle": {"line1": "1 66560U 25268D   25347.30079249  .00142107  00000+0  23771-2 0  9997", "line2": "2 66560  42.9992 117.9044 0001687 256.1982 103.8690 15.50664996  4711"}}, "geometry": {"type": "Point", "coordinates": [130.78151854945165, 17.12749261287567]}}, {"type": "Feature", "properties": {"norad_id": 66561, "name": "STARLINK-35305", "group": "last-30-days", "lat": 19.516614428244154, "lon": 133.8167711494318, "alt_km": 411.6778264191007, "timestamp": "2025-12-14T09:36:21.778637+00:00", "meta": {"OBJECT_NAME": "STARLINK-35305", "OBJECT_ID": "2025-268E", "EPOCH": "2025-12-13T07:12:09.863424", "MEAN_MOTION": 15.50653772, "ECCENTRICITY": 0.00019076, "INCLINATION": 42.999, "RA_OF_ASC_NODE": 117.8983, "ARG_OF_PERICENTER": 248.8765, "MEAN_ANOMALY": 111.1891, "EPHEMERIS_TYPE": 0, "CLASSIFICATION_TYPE": "U", "NORAD_CAT_ID": 66561, "ELEMENT_SET_NO": 999, "REV_AT_EPOCH": 471, "BSTAR": 0.0023845096, "MEAN_MOTION_DOT": 0.00142502, "MEAN_MOTION_DDOT": 0}, "tle": {"line1": "1 66561U 25268E   25347.30011416  .00142502  00000+0  23845-2 0  9991", "line2": "2 66561  42.9990 117.8983 0001907 248.8765 111.1891 15.50653772  4718"}}, "geometry": {"type": "Point", "coordinates": [133.8167711494318, 19.516614428244154]}}, {"type": "Feature", "properties": {"norad_id": 66562, "name": "STARLINK-35579", "group": "last-30-days", "lat": 18.561810972586706, "lon": 132.58597038898333, "alt_km": 410.6831579669433, "timestamp": "2025-12-14T09:36:21.778653+00:00", "meta": {"OBJECT_NAME": "STARLINK-35579", "OBJECT_ID": "2025-268F", "EPOCH": "2025-12-13T07:12:39.764736", "MEAN_MOTION": 15.50680624, "ECCENTRICITY": 0.00017316, "INCLINATION": 42.9998, "RA_OF_ASC_NODE": 117.9016, "ARG_OF_PERICENTER": 277.5188, "MEAN_ANOMALY": 82.5475, "EPHEMERIS_TYPE": 0, "CLASSIFICATION_TYPE": "U", "NORAD_CAT_ID": 66562, "ELEMENT_SET_NO": 999, "REV_AT_EPOCH": 471, "BSTAR": 0.0036072311, "MEAN_MOTION_DOT": 0.00218067, "MEAN_MOTION_DDOT": 0}, "tle": {"line1": "1 66562U 25268F   25347.30046024  .00218067  00000+0  36072-2 0  9991", "line2": "2 66562  42.9998 117.9016 0001731 277.5188  82.5475 15.50680624  4713"}}, "geometry": {"type": "Point", "coordinates": [132.58597038898333, 18.561810972586706]}}, {"type": "Feature", "properties": {"norad_id": 66563, "name": "STARLINK-35437", "group": "last-30-days", "lat": 20.987905703894306, "lon": 135.76470904504976, "alt_km": 410.4192865058276, "timestamp": "2025-12-14T09:36:21.778665+00:00", "meta": {"OBJECT_NAME": "STARLINK-35437", "OBJECT_ID": "2025-268G", "EPOCH": "2025-12-13T07:11:40.442496", "MEAN_MOTION": 15.5068465, "ECCENTRICITY": 0.00017585, "INCLINATION": 42.9998, "RA_OF_ASC_NODE": 117.896, "ARG_OF_PERICENTER": 274.3854, "MEAN_ANOMALY": 85.6805, "EPHEMERIS_TYPE": 0, "CLASSIFICATION_TYPE": "U", "NORAD_CAT_ID": 66563, "ELEMENT_SET_NO": 999, "REV_AT_EPOCH": 471, "BSTAR": 0.003611484, "MEAN_MOTION_DOT": 0.00218364, "MEAN_MOTION_DDOT": 0}, "tle": {"line1": "1 66563U 25268G   25347.29977364  .00218364  00000+0  36115-2 0  9998", "line2": "2 66563  42.9998 117.8960 0001758 274.3854  85.6805 15.50684650  4719"}}, "geometry": {"type": "Point", "coordinates": [135.76470904504976, 20.987905703894306]}}, {"type": "Feature", "properties": {"norad_id": 66564, "name": "STARLINK-35358", "group": "last-30-days", "lat": 21.99490788443384, "lon": 137.1382255011083, "alt_km": 410.5300309398481, "timestamp": "2025-12-14T09:36:21.778675+00:00", "meta": {"OBJECT_NAME": "STARLINK-35358", "OBJECT_ID": "2025-268H", "EPOCH": "2025-12-13T07:11:10.893696", "MEAN_MOTION": 15.50655101, "ECCENTRICITY": 0.00016053, "INCLINATION": 43, "RA_OF_ASC_NODE": 117.8937, "ARG_OF_PERICENTER": 277.7652, "MEAN_ANOMALY": 82.3026, "EPHEMERIS_TYPE": 0, "CLASSIFICATION_TYPE": "U", "NORAD_CAT_ID": 66564, "ELEMENT_SET_NO": 999, "REV_AT_EPOCH": 471, "BSTAR": 0.0029732082, "MEAN_MOTION_DOT": 0.00178603, "MEAN_MOTION_DDOT": 0}, "tle": {"line1": "1 66564U 25268H   25347.29943164  .00178603  00000+0  29732-2 0  9998", "line2": "2 66564  43.0000 117.8937 0001605 277.7652  82.3026 15.50655101  4712"}}, "geometry": {"type": "Point", "coordinates": [137.1382255011083, 21.99490788443384]}}, {"type": "Feature", "properties": {"norad_id": 66565, "name": "STARLINK-35893", "group": "last-30-days", "lat": 23.319393062189636, "lon": 138.99935796647515, "alt_km": 410.5448277848218, "timestamp": "2025-12-14T09:36:21.778685+00:00", "meta": {"OBJECT_NAME": "STARLINK-35893", "OBJECT_ID": "2025-268J", "EPOCH": "2025-12-13T07:10:40.944864", "MEAN_MOTION": 15.50675168, "ECCENTRICITY": 0.00023857, "INCLINATION": 42.9998, "RA_OF_ASC_NODE": 117.8901, "ARG_OF_PERICENTER": 265.1059, "MEAN_ANOMALY": 94.9529, "EPHEMERIS_TYPE": 0, "CLASSIFICATION_TYPE": "U", "NORAD_CAT_ID": 66565, "ELEMENT_SET_NO": 999, "REV_AT_EPOCH": 471, "BSTAR": 0.0035757986, "MEAN_MOTION_DOT": 0.00216069, "MEAN_MOTION_DDOT": 0}, "tle": {"line1": "1 66565U 25268J   25347.29908501  .00216069  00000+0  35758-2 0  9999", "line2": "2 66565  42.9998 117.8901 0002385 265.1059  94.9529 15.50675168  4718"}}, "geometry": {"type": "Point", "coordinates": [138.99935796647515, 23.319393062189636]}}, {"type": "Feature", "properties": {"norad_id": 66566, "name": "STARLINK-35871", "group": "last-30-days", "lat": 24.26071189769184, "lon": 140.36476745620172, "alt_km": 410.53640725205514, "timestamp": "2025-12-14T09:36:21.778695+00:00", "meta": {"OBJECT_NAME": "STARLINK-35871", "OBJECT_ID": "2025-268K", "EPOCH": "2025-12-13T07:10:11.470368", "MEAN_MOTION": 15.50653112, "ECCENTRICITY": 0.00017939, "INCLINATION": 42.9995, "RA_OF_ASC_NODE": 117.8868, "ARG_OF_PERICENTER": 271.8651, "MEAN_ANOMALY": 88.2003, "EPHEMERIS_TYPE": 0, "CLASSIFICATION_TYPE": "U", "NORAD_CAT_ID": 66566, "ELEMENT_SET_NO": 999, "REV_AT_EPOCH": 471, "BSTAR": 0.0025958318, "MEAN_MOTION_DOT": 0.00155415, "MEAN_MOTION_DDOT": 0}, "tle": {"line1": "1 66566U 25268K   25347.29874387  .00155415  00000+0  25958-2 0  9992", "line2": "2 66566  42.9995 117.8868 0001793 271.8651  88.2003 15.50653112  4710"}}, "geometry": {"type": "Point", "coordinates": [140.36476745620172, 24.26071189769184]}}, {"type": "Feature", "properties": {"norad_id": 66567, "name": "STARLINK-35825", "group": "last-30-days", "lat": 25.64056711775582, "lon": 142.4389219404309, "alt_km": 409.9397442954505, "timestamp": "2025-12-14T09:36:21.778705+00:00", "meta": {"OBJECT_NAME": "STARLINK-35825", "OBJECT_ID": "2025-268L", "EPOCH": "2025-12-13T08:42:26.885952", "MEAN_MOTION": 15.50711822, "ECCENTRICITY": 0.00017295, "INCLINATION": 42.9993, "RA_OF_ASC_NODE": 117.5073, "ARG_OF_PERICENTER": 263.0073, "MEAN_ANOMALY": 97.059, "EPHEMERIS_TYPE": 0, "CLASSIFICATION_TYPE": "U", "NORAD_CAT_ID": 66567, "ELEMENT_SET_NO": 999, "REV_AT_EPOCH": 472, "BSTAR": 0.0037470681, "MEAN_MOTION_DOT": 0.00227049, "MEAN_MOTION_DDOT": 0}, "tle": {"line1": "1 66567U 25268L   25347.36281118  .00227049  00000+0  37471-2 0  9991", "line2": "2 66567  42.9993 117.5073 0001729 263.0073  97.0590 15.50711822  4727"}}, "geometry": {"type": "Point", "coordinates": [142.4389219404309, 25.64056711775582]}}]}